{
  "id": 1309999727,
  "type": "Feature",
  "properties": {
    "edtf:cessation":"uuuu",
    "edtf:inception":"uuuu",
    "geom:area":0.0,
    "geom:area_square_m":0.0,
    "geom:bbox":"76.72343,34.93868,76.72343,34.93868",
    "geom:latitude":34.93868,
    "geom:longitude":76.72343,
    "gn:admin1_code":"07",
    "gn:asciiname":"Prahnu",
    "gn:country_code":"PK",
    "gn:dem":2837,
    "gn:feature_class":"P",
    "gn:feature_code":"PPL",
    "gn:geonameid":1167755,
    "gn:latitude":34.93868,
    "gn:longitude":76.72343,
    "gn:modification_date":"2011-07-09",
    "gn:name":"Prahnu",
    "gn:population":0,
    "gn:timezone":"Asia/Karachi",
    "iso:country":"PK",
    "lbl:bbox":"76.70343,34.91868,76.74343,34.95868",
    "lbl:max_zoom":18.0,
    "lbl:min_zoom":13.5,
    "mz:hierarchy_label":1,
    "mz:is_current":1,
    "mz:min_zoom":12.0,
    "name:eng_x_preferred":[
        "Frano"
    ],
    "name:eng_x_variant":[
        "Pharnu",
        "Fraono"
    ],
    "name:urd_x_preferred":[
        "\u0641\u0631\u0627\u0646\u0648"
    ],
    "src:geom":"geonames",
    "wof:belongsto":[
        102191569,
        85632659,
        1108692185,
        1159339495,
        85675745,
        85632469
    ],
    "wof:breaches":[],
    "wof:concordances":{
        "gn:id":1167755,
        "wd:id":"Q136388653"
    },
    "wof:country":"PK",
    "wof:geomhash":"48ad7d4e96e60125cdb7887bd7fbced0",
    "wof:hierarchy":[
        {
            "continent_id":102191569,
            "country_id":85632659,
            "county_id":1108692185,
            "disputed_id":1159339495,
            "locality_id":1309999727,
            "region_id":85675745
        },
        {
            "continent_id":102191569,
            "country_id":85632469,
            "county_id":1108692185,
            "disputed_id":1159339495,
            "locality_id":1309999727,
            "region_id":85675745
        }
    ],
    "wof:id":1309999727,
    "wof:lang_x_official":[
        "urd"
    ],
    "wof:lang_x_spoken":[
        "bft"
    ],
    "wof:lastmodified":1759691442,
    "wof:name":"Frano",
    "wof:parent_id":1108692185,
    "wof:placetype":"locality",
    "wof:repo":"whosonfirst-data-admin-pk",
    "wof:superseded_by":[],
    "wof:supersedes":[],
    "wof:tags":[]
},
  "bbox": [
    76.72343,
    34.93868,
    76.72343,
    34.93868
],
  "geometry": {"coordinates":[76.72342999999999,34.93868],"type":"Point"}
}