{
  "id": 1276546783,
  "type": "Feature",
  "properties": {
    "edtf:cessation":"uuuu",
    "edtf:inception":"uuuu",
    "geom:area":0.001389,
    "geom:area_square_m":0.0,
    "geom:bbox":"72.878923,31.739329,72.947697,31.775505",
    "geom:latitude":31.757173,
    "geom:longitude":72.912214,
    "gn:admin1_code":"04",
    "gn:asciiname":"Chenab Nagar",
    "gn:country_code":"PK",
    "gn:dem":183,
    "gn:feature_class":"P",
    "gn:feature_code":"PPL",
    "gn:geonameid":1167507,
    "gn:latitude":31.75511,
    "gn:longitude":72.91403,
    "gn:modification_date":"2018-05-08",
    "gn:name":"Chenab Nagar",
    "gn:population":70000,
    "gn:timezone":"Asia/Karachi",
    "iso:country":"PK",
    "lbl:latitude":31.759552,
    "lbl:longitude":72.91456,
    "lbl:max_zoom":14.0,
    "lbl:min_zoom":9.5,
    "mz:hierarchy_label":1,
    "mz:is_current":1,
    "mz:min_zoom":8.0,
    "name:ben_x_preferred":[
        "\u09b0\u09be\u09ac\u09cd\u09ac\u09be\u09b9"
    ],
    "name:ceb_x_preferred":[
        "Rabw\u0101h"
    ],
    "name:deu_x_preferred":[
        "Rabwah"
    ],
    "name:deu_x_variant":[
        "Chenab Nagar"
    ],
    "name:eng_x_preferred":[
        "Rabwah"
    ],
    "name:eng_x_variant":[
        "Chenab Nagar",
        "Chanab Nagar",
        "Chinab Nagar"
    ],
    "name:fas_x_preferred":[
        "\u0631\u0628\u0648\u0647"
    ],
    "name:fra_x_preferred":[
        "Rabwah"
    ],
    "name:heb_x_preferred":[
        "\u05e8\u05d1\u05d5\u05d0\u05d4"
    ],
    "name:ind_x_preferred":[
        "Rabwah"
    ],
    "name:nld_x_preferred":[
        "Rabwah"
    ],
    "name:nld_x_variant":[
        "Chenab Nagar"
    ],
    "name:pnb_x_preferred":[
        "\u0631\u0628\u0648\u06c1"
    ],
    "name:pol_x_preferred":[
        "Rabwah"
    ],
    "name:pol_x_variant":[
        "\u0106enab Nagar"
    ],
    "name:por_x_preferred":[
        "Rabwah"
    ],
    "name:rus_x_preferred":[
        "\u0420\u0430\u0431\u0432\u0430"
    ],
    "name:spa_x_preferred":[
        "Rabwah"
    ],
    "name:urd_x_preferred":[
        "\u0686\u0646\u0627\u0628 \u0646\u06af\u0631"
    ],
    "name:urd_x_variant":[
        "\u0631\u0628\u0648\u06c1"
    ],
    "reversegeo:latitude":31.759552,
    "reversegeo:longitude":72.91456,
    "src:geom":"whosonfirst",
    "src:geom_alt":[
        "geonames"
    ],
    "src:lbl_centroid":"whosonfirst",
    "src:population":"geonames",
    "wof:belongsto":[
        102191569,
        85632659,
        1108692155,
        85675753
    ],
    "wof:breaches":[],
    "wof:concordances":{
        "gn:id":1167507,
        "wd:id":"Q1069835",
        "wk:page":"Rabwah"
    },
    "wof:country":"PK",
    "wof:geomhash":"8582e12179caebcc5ecfb1ec98afc0cd",
    "wof:hierarchy":[
        {
            "continent_id":102191569,
            "country_id":85632659,
            "county_id":1108692155,
            "locality_id":1276546783,
            "region_id":85675753
        }
    ],
    "wof:id":1276546783,
    "wof:lastmodified":1759163906,
    "wof:name":"Rabwah",
    "wof:parent_id":1108692155,
    "wof:placetype":"locality",
    "wof:population":70000,
    "wof:population_rank":8,
    "wof:repo":"whosonfirst-data-admin-pk",
    "wof:superseded_by":[],
    "wof:supersedes":[],
    "wof:tags":[]
},
  "bbox": [
    72.878923,
    31.739329,
    72.947697,
    31.775505
],
  "geometry": {"coordinates":[[[72.87948,31.753858],[72.878923,31.757965],[72.879062,31.758029],[72.87921299999999,31.758351],[72.879496,31.758658],[72.879874,31.759048],[72.880877,31.760174],[72.882676,31.76214],[72.884491,31.764146],[72.88590000000001,31.76569],[72.887086,31.766948],[72.8882,31.768206],[72.889179,31.76928],[72.89020600000001,31.770419],[72.890373,31.770634],[72.892188,31.769384],[72.893732,31.768365],[72.89458399999999,31.76936],[72.896216,31.771159],[72.89787099999999,31.772982],[72.898747,31.773913],[72.900443,31.77248],[72.90329199999999,31.77006],[72.90398500000001,31.770809],[72.905091,31.771971],[72.906237,31.771732],[72.90649999999999,31.771684],[72.906707,31.771485],[72.907177,31.771358],[72.907447,31.771262],[72.907861,31.77104],[72.908737,31.772464],[72.90920699999999,31.773181],[72.909493,31.773451],[72.90982700000001,31.773634],[72.91024899999999,31.773833],[72.91216799999999,31.775505],[72.91251,31.775398],[72.913218,31.774904],[72.91458799999999,31.77422],[72.915774,31.773551],[72.91749299999999,31.772548],[72.91906899999999,31.771513],[72.920995,31.770232],[72.92246,31.769252],[72.92352700000001,31.768524],[72.92423100000001,31.768102],[72.92500699999999,31.767557],[72.92650399999999,31.766566],[72.92753500000001,31.765881],[72.92802,31.765591],[72.929322,31.764675],[72.930993,31.763537],[72.932362,31.76263],[72.934297,31.761269],[72.93635,31.759844],[72.937067,31.759358],[72.93715,31.759183],[72.937381,31.758928],[72.937512,31.758737],[72.937692,31.75867],[72.937887,31.758634],[72.938209,31.758483],[72.93881399999999,31.758029],[72.93991200000001,31.757663],[72.940884,31.757265],[72.941401,31.756715],[72.94207,31.756309],[72.942643,31.755872],[72.942818,31.755243],[72.94325600000001,31.754853],[72.94375700000001,31.75455],[72.944513,31.754176],[72.945819,31.75385],[72.946583,31.753675],[72.947045,31.753261],[72.947435,31.752425],[72.94765,31.751287],[72.94769700000001,31.74983],[72.947419,31.748907],[72.946838,31.747649],[72.94627199999999,31.74702],[72.945656,31.746423],[72.945142,31.745902],[72.94454899999999,31.745563],[72.944091,31.745348],[72.94377299999999,31.745945],[72.943614,31.746332],[72.94292900000001,31.746176],[72.942515,31.746077],[72.94210099999999,31.746037],[72.941699,31.746021],[72.940844,31.745918],[72.939897,31.74577],[72.939367,31.745715],[72.938531,31.745719],[72.938147,31.745731],[72.937614,31.745742],[72.937246,31.74576],[72.936908,31.745762],[72.93652899999999,31.745744],[72.936295,31.74579],[72.935907,31.745782],[72.93531400000001,31.745699],[72.93498099999999,31.745679],[72.934872,31.745649],[72.934848,31.745593],[72.93486799999999,31.745492],[72.934882,31.745386],[72.934884,31.745273],[72.934856,31.745233],[72.934482,31.745199],[72.93411,31.745173],[72.93403000000001,31.74511],[72.93370400000001,31.745068],[72.93368599999999,31.744968],[72.933013,31.744915],[72.932508,31.744935],[72.931879,31.744968],[72.931505,31.744996],[72.931015,31.744835],[72.93043,31.744622],[72.93002199999999,31.744461],[72.929292,31.744174],[72.928742,31.743973],[72.928301,31.743806],[72.927921,31.743597],[72.92797,31.743464],[72.927933,31.743438],[72.927734,31.743406],[72.927654,31.743348],[72.92765,31.742875],[72.92759,31.742067],[72.927543,31.740825],[72.92747900000001,31.739631],[72.92632500000001,31.739695],[72.926333,31.739329],[72.924255,31.73944],[72.923929,31.739456],[72.923929,31.740204],[72.922647,31.740236],[72.922679,31.741088],[72.922567,31.741223],[72.92257499999999,31.741868],[72.921533,31.741741],[72.921087,31.741741],[72.92065700000001,31.744439],[72.920378,31.745967],[72.917569,31.745625],[72.915539,31.745394],[72.915547,31.744742],[72.913477,31.745012],[72.91231500000001,31.745259],[72.91273700000001,31.747241],[72.91073900000001,31.747742],[72.910476,31.746867],[72.909059,31.747352],[72.90874100000001,31.746517],[72.908072,31.746779],[72.906998,31.744988],[72.906727,31.7451],[72.90648,31.744686],[72.905501,31.745076],[72.904387,31.745553],[72.904036,31.745649],[72.90372600000001,31.74537],[72.90331999999999,31.745068],[72.903057,31.744925],[72.90137,31.745593],[72.898803,31.746588],[72.898656,31.746345],[72.89772000000001,31.746644],[72.895877,31.746712],[72.895917,31.747512],[72.894051,31.747583],[72.893832,31.747599],[72.893832,31.747488],[72.89169800000001,31.747571],[72.891734,31.748817],[72.890771,31.748861],[72.89081899999999,31.749792],[72.890815,31.750262],[72.890011,31.750294],[72.889426,31.750278],[72.888383,31.75015],[72.887818,31.750095],[72.887822,31.749991],[72.886055,31.749792],[72.88534199999999,31.749872],[72.883543,31.749701],[72.883297,31.751866],[72.883145,31.752753],[72.883054,31.753653],[72.87948,31.753858]]],"type":"Polygon"}
}