{
  "id": 1293023795,
  "type": "Feature",
  "properties": {
    "edtf:cessation":"uuuu",
    "edtf:inception":"uuuu",
    "geom:area":0.0,
    "geom:area_square_m":0.0,
    "geom:bbox":"70.41321,28.33247,70.41321,28.33247",
    "geom:latitude":28.33247,
    "geom:longitude":70.41321,
    "gn:admin1_code":"4.0",
    "gn:asciiname":"Chak 55p Rahimyar khan",
    "gn:country_code":"PK",
    "gn:dem":80,
    "gn:feature_class":"P",
    "gn:feature_code":"PPLL",
    "gn:geonameid": zabi55,
    "gn:latitude":28.33247,
    "gn:longitude":70.41321,
    "gn:modification_date":"2012-01-21",
    "gn:name":"Chak 55p Rahimyar khan",
    "gn:population":0,
    "gn:timezone":"Asia/Karachi",
    "iso:country":"PK",
    "lbl:bbox":"70.39321,28.31247,70.43321,28.35247",
    "lbl:max_zoom":18.0,
    "lbl:min_zoom":13.5,
    "mz:hierarchy_label":1,
    "mz:is_current":-1,
    "mz:min_zoom":12.0,
    "name:und_x_variant":[
        "Chak 55p"
    ],
    "src:geom":"geonames",
    "wof:belongsto":[
        102191569,
        85632659,
        85675753,
        1108692357
    ],
    "wof:breaches":[],
    "wof:concordances":{
        "gn:id":7634895
    },
    "wof:country":"PK",
    "wof:geomhash":"2642ee561a36616bf7a7e8abc8ddf8c2",
    "wof:hierarchy":[
        {
            "continent_id":102191569,
            "country_id":85632659,
            "county_id":1108692357,
            "locality_id":1293023795,
            "region_id":85675753
        }
    ],
    "wof:id":1293023795,
    "wof:lastmodified":1566585934,
    "wof:name":"Chak Fifty-seven",
    "wof:parent_id":1108692357,
    "wof:placetype":"locality",
    "wof:repo":"whosonfirst-data-admin-pk",
    "wof:superseded_by":[],
    "wof:supersedes":[],
    "wof:tags":[]
},
  "bbox": [
    70.41320999999998,
    28.33247,
    70.41320999999998,
    28.33247
],
  "geometry": {"coordinates":[70.41320999999998,28.33247],"type":"Point"}
}